[{"OBJECT_NAME":"ONEWEB-0598","OBJECT_ID":"2023-004Q","EPOCH":"2026-01-10T12:44:49.022016","MEAN_MOTION":13.11417633,"ECCENTRICITY":0.00011638,"INCLINATION":87.8827,"RA_OF_ASC_NODE":52.4615,"ARG_OF_PERICENTER":103.0048,"MEAN_ANOMALY":257.121,"EPHEMERIS_TYPE":0,"CLASSIFICATION_TYPE":"U","NORAD_CAT_ID":55154,"ELEMENT_SET_NO":999,"REV_AT_EPOCH":14523,"BSTAR":-0.0011704819,"MEAN_MOTION_DOT":-4.02e-6,"MEAN_MOTION_DDOT":0},{"OBJECT_NAME":"ONEWEB-0599","OBJECT_ID":"2023-004R","EPOCH":"2026-01-10T23:44:02.173920","MEAN_MOTION":13.17651298,"ECCENTRICITY":0.00015984,"INCLINATION":87.9086,"RA_OF_ASC_NODE":37.1153,"ARG_OF_PERICENTER":90.1171,"MEAN_ANOMALY":270.0143,"EPHEMERIS_TYPE":0,"CLASSIFICATION_TYPE":"U","NORAD_CAT_ID":55155,"ELEMENT_SET_NO":999,"REV_AT_EPOCH":14678,"BSTAR":0.00018165143,"MEAN_MOTION_DOT":8.3e-7,"MEAN_MOTION_DDOT":0},{"OBJECT_NAME":"ONEWEB-0614","OBJECT_ID":"2023-004S","EPOCH":"2026-01-10T12:37:29.469792","MEAN_MOTION":13.11417268,"ECCENTRICITY":0.00020685,"INCLINATION":87.8825,"RA_OF_ASC_NODE":52.4714,"ARG_OF_PERICENTER":103.1881,"MEAN_ANOMALY":256.9478,"EPHEMERIS_TYPE":0,"CLASSIFICATION_TYPE":"U","NORAD_CAT_ID":55156,"ELEMENT_SET_NO":999,"REV_AT_EPOCH":14517,"BSTAR":-0.0018915896,"MEAN_MOTION_DOT":-6.58e-6,"MEAN_MOTION_DDOT":0},{"OBJECT_NAME":"ONEWEB-0616","OBJECT_ID":"2023-004T","EPOCH":"2026-01-10T11:59:21.099264","MEAN_MOTION":13.17649587,"ECCENTRICITY":0.00017972,"INCLINATION":87.9097,"RA_OF_ASC_NODE":37.2073,"ARG_OF_PERICENTER":62.3304,"MEAN_ANOMALY":297.8009,"EPHEMERIS_TYPE":0,"CLASSIFICATION_TYPE":"U","NORAD_CAT_ID":55157,"ELEMENT_SET_NO":999,"REV_AT_EPOCH":14693,"BSTAR":0.00025845166,"MEAN_MOTION_DOT":1.13e-6,"MEAN_MOTION_DDOT":0},{"OBJECT_NAME":"ONEWEB-0617","OBJECT_ID":"2023-004U","EPOCH":"2026-01-10T12:20:24.102240","MEAN_MOTION":13.11414838,"ECCENTRICITY":0.00019352,"INCLINATION":87.8828,"RA_OF_ASC_NODE":52.4537,"ARG_OF_PERICENTER":108.5347,"MEAN_ANOMALY":251.5991,"EPHEMERIS_TYPE":0,"CLASSIFICATION_TYPE":"U","NORAD_CAT_ID":55158,"ELEMENT_SET_NO":999,"REV_AT_EPOCH":14519,"BSTAR":-0.0011315958,"MEAN_MOTION_DOT":-3.88e-6,"MEAN_MOTION_DDOT":0},{"OBJECT_NAME":"ONEWEB-0618","OBJECT_ID":"2023-004V","EPOCH":"2026-01-10T13:42:25.288992","MEAN_MOTION":15.11227356,"ECCENTRICITY":0.00138789,"INCLINATION":86.9066,"RA_OF_ASC_NODE":241.5564,"ARG_OF_PERICENTER":149.3139,"MEAN_ANOMALY":210.8914,"EPHEMERIS_TYPE":0,"CLASSIFICATION_TYPE":"U","NORAD_CAT_ID":55159,"ELEMENT_SET_NO":999,"REV_AT_EPOCH":15844,"BSTAR":0.00039953679,"MEAN_MOTION_DOT":6.758e-5,"MEAN_MOTION_DDOT":0},{"OBJECT_NAME":"ONEWEB-0619","OBJECT_ID":"2023-004W","EPOCH":"2026-01-10T23:41:35.974752","MEAN_MOTION":13.17648123,"ECCENTRICITY":0.00022001,"INCLINATION":87.9095,"RA_OF_ASC_NODE":37.084,"ARG_OF_PERICENTER":87.815,"MEAN_ANOMALY":272.3233,"EPHEMERIS_TYPE":0,"CLASSIFICATION_TYPE":"U","NORAD_CAT_ID":55160,"ELEMENT_SET_NO":999,"REV_AT_EPOCH":14689,"BSTAR":7.7370954e-5,"MEAN_MOTION_DOT":4.3e-7,"MEAN_MOTION_DDOT":0},{"OBJECT_NAME":"ONEWEB-0620","OBJECT_ID":"2023-004X","EPOCH":"2026-01-10T12:13:04.887840","MEAN_MOTION":13.11414263,"ECCENTRICITY":0.00016382,"INCLINATION":87.8824,"RA_OF_ASC_NODE":52.474,"ARG_OF_PERICENTER":106.8934,"MEAN_ANOMALY":253.2374,"EPHEMERIS_TYPE":0,"CLASSIFICATION_TYPE":"U","NORAD_CAT_ID":55161,"ELEMENT_SET_NO":999,"REV_AT_EPOCH":14516,"BSTAR":-0.00071862822,"MEAN_MOTION_DOT":-2.42e-6,"MEAN_MOTION_DDOT":0},{"OBJECT_NAME":"ONEWEB-0621","OBJECT_ID":"2023-004Y","EPOCH":"2026-01-10T12:52:07.789728","MEAN_MOTION":13.11422458,"ECCENTRICITY":0.00021282,"INCLINATION":87.8838,"RA_OF_ASC_NODE":52.4422,"ARG_OF_PERICENTER":98.356,"MEAN_ANOMALY":261.7809,"EPHEMERIS_TYPE":0,"CLASSIFICATION_TYPE":"U","NORAD_CAT_ID":55162,"ELEMENT_SET_NO":999,"REV_AT_EPOCH":14514,"BSTAR":-0.0043501373,"MEAN_MOTION_DOT":-1.529e-5,"MEAN_MOTION_DDOT":0},{"OBJECT_NAME":"ONEWEB-0622","OBJECT_ID":"2023-004Z","EPOCH":"2026-01-10T12:59:28.798656","MEAN_MOTION":13.11419449,"ECCENTRICITY":0.00022642,"INCLINATION":87.8832,"RA_OF_ASC_NODE":52.4472,"ARG_OF_PERICENTER":115.3567,"MEAN_ANOMALY":244.7795,"EPHEMERIS_TYPE":0,"CLASSIFICATION_TYPE":"U","NORAD_CAT_ID":55163,"ELEMENT_SET_NO":999,"REV_AT_EPOCH":14513,"BSTAR":8.1372288e-5,"MEAN_MOTION_DOT":4.2e-7,"MEAN_MOTION_DDOT":0},{"OBJECT_NAME":"ONEWEB-0623","OBJECT_ID":"2023-004AA","EPOCH":"2026-01-10T23:34:19.538976","MEAN_MOTION":13.17649653,"ECCENTRICITY":0.00025393,"INCLINATION":87.9085,"RA_OF_ASC_NODE":37.132,"ARG_OF_PERICENTER":101.1383,"MEAN_ANOMALY":259.0034,"EPHEMERIS_TYPE":0,"CLASSIFICATION_TYPE":"U","NORAD_CAT_ID":55164,"ELEMENT_SET_NO":999,"REV_AT_EPOCH":14688,"BSTAR":9.5040376e-5,"MEAN_MOTION_DOT":5.0e-7,"MEAN_MOTION_DDOT":0},{"OBJECT_NAME":"ONEWEB-0624","OBJECT_ID":"2023-004AB","EPOCH":"2026-01-10T23:24:31.756320","MEAN_MOTION":13.12923727,"ECCENTRICITY":0.00020183,"INCLINATION":87.8921,"RA_OF_ASC_NODE":21.8335,"ARG_OF_PERICENTER":95.7981,"MEAN_ANOMALY":264.3378,"EPHEMERIS_TYPE":0,"CLASSIFICATION_TYPE":"U","NORAD_CAT_ID":55165,"ELEMENT_SET_NO":999,"REV_AT_EPOCH":14744,"BSTAR":-0.000895315,"MEAN_MOTION_DOT":-3.12e-6,"MEAN_MOTION_DDOT":0},{"OBJECT_NAME":"ONEWEB-0625","OBJECT_ID":"2023-004AC","EPOCH":"2026-01-10T12:23:38.410656","MEAN_MOTION":13.1764974,"ECCENTRICITY":0.00017515,"INCLINATION":87.9084,"RA_OF_ASC_NODE":37.2189,"ARG_OF_PERICENTER":87.8746,"MEAN_ANOMALY":272.2587,"EPHEMERIS_TYPE":0,"CLASSIFICATION_TYPE":"U","NORAD_CAT_ID":55166,"ELEMENT_SET_NO":999,"REV_AT_EPOCH":14681,"BSTAR":0.00068689317,"MEAN_MOTION_DOT":2.8e-6,"MEAN_MOTION_DDOT":0},{"OBJECT_NAME":"ONEWEB-0626","OBJECT_ID":"2023-004AD","EPOCH":"2026-01-10T12:09:03.596832","MEAN_MOTION":13.17648251,"ECCENTRICITY":0.00013623,"INCLINATION":87.9085,"RA_OF_ASC_NODE":37.2213,"ARG_OF_PERICENTER":102.6544,"MEAN_ANOMALY":257.474,"EPHEMERIS_TYPE":0,"CLASSIFICATION_TYPE":"U","NORAD_CAT_ID":55167,"ELEMENT_SET_NO":999,"REV_AT_EPOCH":14681,"BSTAR":0.00012224051,"MEAN_MOTION_DOT":6.0e-7,"MEAN_MOTION_DDOT":0},{"OBJECT_NAME":"ONEWEB-0627","OBJECT_ID":"2023-004AE","EPOCH":"2026-01-10T11:52:03.592992","MEAN_MOTION":13.17650196,"ECCENTRICITY":0.00022649,"INCLINATION":87.9085,"RA_OF_ASC_NODE":37.2237,"ARG_OF_PERICENTER":103.6125,"MEAN_ANOMALY":256.5259,"EPHEMERIS_TYPE":0,"CLASSIFICATION_TYPE":"U","NORAD_CAT_ID":55168,"ELEMENT_SET_NO":999,"REV_AT_EPOCH":14681,"BSTAR":4.7732292e-5,"MEAN_MOTION_DOT":3.1e-7,"MEAN_MOTION_DDOT":0},{"OBJECT_NAME":"ONEWEB-0628","OBJECT_ID":"2023-004AF","EPOCH":"2026-01-10T23:24:23.194080","MEAN_MOTION":13.12443184,"ECCENTRICITY":0.00024936,"INCLINATION":87.8928,"RA_OF_ASC_NODE":21.8685,"ARG_OF_PERICENTER":94.2518,"MEAN_ANOMALY":265.8896,"EPHEMERIS_TYPE":0,"CLASSIFICATION_TYPE":"U","NORAD_CAT_ID":55169,"ELEMENT_SET_NO":999,"REV_AT_EPOCH":14741,"BSTAR":-0.0018256781,"MEAN_MOTION_DOT":-6.44e-6,"MEAN_MOTION_DDOT":0}]
