ONEWEB-0598             
1 55154U 23004Q   26010.53112294 -.00000402  00000+0 -11705-2 0  9998
2 55154  87.8827  52.4615 0001163 103.0048 257.1210 13.11417633145235
ONEWEB-0599             
1 55155U 23004R   26010.98891405  .00000083  00000+0  18165-3 0  9997
2 55155  87.9086  37.1153 0001598  90.1171 270.0143 13.17651298146789
ONEWEB-0614             
1 55156U 23004S   26010.52603553 -.00000658  00000+0 -18916-2 0  9996
2 55156  87.8825  52.4714 0002068 103.1881 256.9478 13.11417268145176
ONEWEB-0616             
1 55157U 23004T   26010.49954976  .00000113  00000+0  25845-3 0  9995
2 55157  87.9097  37.2073 0001797  62.3304 297.8009 13.17649587146938
ONEWEB-0617             
1 55158U 23004U   26010.51416785 -.00000388  00000+0 -11316-2 0  9993
2 55158  87.8828  52.4537 0001935 108.5347 251.5991 13.11414838145195
ONEWEB-0618             
1 55159U 23004V   26010.57112603  .00006758  00000+0  39954-3 0  9996
2 55159  86.9066 241.5564 0013878 149.3139 210.8914 15.11227356158446
ONEWEB-0619             
1 55160U 23004W   26010.98722193  .00000043  00000+0  77371-4 0  9991
2 55160  87.9095  37.0840 0002200  87.8150 272.3233 13.17648123146898
ONEWEB-0620             
1 55161U 23004X   26010.50908435 -.00000242  00000+0 -71863-3 0  9997
2 55161  87.8824  52.4740 0001638 106.8934 253.2374 13.11414263145167
ONEWEB-0621             
1 55162U 23004Y   26010.53620127 -.00001529  00000+0 -43501-2 0  9996
2 55162  87.8838  52.4422 0002128  98.3560 261.7809 13.11422458145145
ONEWEB-0622             
1 55163U 23004Z   26010.54130554  .00000042  00000+0  81372-4 0  9995
2 55163  87.8832  52.4472 0002264 115.3567 244.7795 13.11419449145133
ONEWEB-0623             
1 55164U 23004AA  26010.98217059  .00000050  00000+0  95040-4 0  9996
2 55164  87.9085  37.1320 0002539 101.1383 259.0034 13.17649653146887
ONEWEB-0624             
1 55165U 23004AB  26010.97536755 -.00000312  00000+0 -89531-3 0  9993
2 55165  87.8921  21.8335 0002018  95.7981 264.3378 13.12923727147441
ONEWEB-0625             
1 55166U 23004AC  26010.51641679  .00000280  00000+0  68689-3 0  9999
2 55166  87.9084  37.2189 0001751  87.8746 272.2587 13.17649740146810
ONEWEB-0626             
1 55167U 23004AD  26010.50629163  .00000060  00000+0  12224-3 0  9993
2 55167  87.9085  37.2213 0001362 102.6544 257.4740 13.17648251146812
ONEWEB-0627             
1 55168U 23004AE  26010.49448603  .00000031  00000+0  47732-4 0  9991
2 55168  87.9085  37.2237 0002264 103.6125 256.5259 13.17650196146813
ONEWEB-0628             
1 55169U 23004AF  26010.97526845 -.00000644  00000+0 -18257-2 0  9990
2 55169  87.8928  21.8685 0002493  94.2518 265.8896 13.12443184147419
